[{"OBJECT_NAME":"OBJECT C","OBJECT_ID":"2023-104C","EPOCH":"2026-03-09T22:39:44.230752","MEAN_MOTION":15.26846312,"ECCENTRICITY":0.00113074,"INCLINATION":97.273,"RA_OF_ASC_NODE":135.3333,"ARG_OF_PERICENTER":3.876,"MEAN_ANOMALY":356.2565,"EPHEMERIS_TYPE":0,"CLASSIFICATION_TYPE":"U","NORAD_CAT_ID":57426,"ELEMENT_SET_NO":999,"REV_AT_EPOCH":14663,"BSTAR":0.00062618506,"MEAN_MOTION_DOT":0.00016495,"MEAN_MOTION_DDOT":0},{"OBJECT_NAME":"STARLINK-31088","OBJECT_ID":"2023-200R","EPOCH":"2026-03-09T22:00:01.999584","MEAN_MOTION":15.26761036,"ECCENTRICITY":0.00011014,"INCLINATION":43.0001,"RA_OF_ASC_NODE":167.2773,"ARG_OF_PERICENTER":270.833,"MEAN_ANOMALY":274.2761,"EPHEMERIS_TYPE":0,"CLASSIFICATION_TYPE":"U","NORAD_CAT_ID":58604,"ELEMENT_SET_NO":999,"REV_AT_EPOCH":573,"BSTAR":-0.00051166747,"MEAN_MOTION_DOT":-0.00013967,"MEAN_MOTION_DDOT":0}]
